STARLINK-2481
1 18138C 21027AY  21326.17102322  .00001910  00000-0  12792-3 0  3267
2 18138  53.0566  12.9777 0001557  56.5492 101.1971 15.06407926    14
